OBJECT_NAME,OBJECT_ID,EPOCH,MEAN_MOTION,ECCENTRICITY,INCLINATION,RA_OF_ASC_NODE,ARG_OF_PERICENTER,MEAN_ANOMALY,EPHEMERIS_TYPE,CLASSIFICATION_TYPE,NORAD_CAT_ID,ELEMENT_SET_NO,REV_AT_EPOCH,BSTAR,MEAN_MOTION_DOT,MEAN_MOTION_DDOT
STARLINK-37531,2026-110N,2026-06-06T06:00:02.000160,15.74836747,.0001308,97.2840,353.5327,81.3115,292.6859,0,U,69136,999,390,-.5652065E-2,-.760225E-2,0
STARLINK-37662,2026-110P,2026-06-06T06:00:02.000160,15.69194222,.00013942,97.2844,353.5204,78.0414,267.8840,0,U,69137,999,390,-.71270525E-2,-.755247E-2,0
STARLINK-37658,2026-110Q,2026-06-06T06:00:02.000160,15.62118152,.00019463,97.2851,353.4869,99.1715,168.7133,0,U,69138,999,390,-.33729424E-1,-.2562843E-1,0
STARLINK-37659,2026-110R,2026-06-06T06:00:02.000160,15.60189825,.00020386,97.2854,353.4760,95.0422,147.4016,0,U,69139,999,390,-.35771648E-1,-.2527625E-1,0
STARLINK-37653,2026-110S,2026-06-06T06:00:02.000160,15.58807868,.00020428,97.2854,353.4748,100.2834,138.5012,0,U,69140,999,390,-.38649418E-1,-.2581609E-1,0
STARLINK-37654,2026-110T,2026-06-06T06:00:02.000160,15.69819819,.00015595,97.2842,353.5297,85.3206,283.4224,0,U,69141,999,390,-.24771614E-1,-.2567808E-1,0
STARLINK-37655,2026-110U,2026-06-06T06:00:02.000160,15.71718373,.00012462,97.2842,353.5362,89.5716,292.3731,0,U,69142,999,390,-.63846295E-2,-.752057E-2,0
STARLINK-37636,2026-110V,2026-06-05T20:37:42.636864,15.80941715,.00013147,97.2843,353.1400,94.7216,265.4202,0,U,69143,999,385,.14277653E-2,.284063E-2,0
STARLINK-37638,2026-110W,2026-06-05T20:36:36.812160,15.80913074,.00014402,97.2844,353.1411,81.2606,278.8825,0,U,69144,999,385,.99106891E-3,.194857E-2,0
STARLINK-37657,2026-110X,2026-06-06T06:00:02.000160,15.69257686,.00014638,97.2849,353.5348,81.8101,297.9226,0,U,69145,999,395,-.25812146E-1,-.2607492E-1,0
STARLINK-37639,2026-110Y,2026-06-05T20:34:27.907680,15.80900757,.0001322,97.2849,353.1434,81.7527,278.3891,0,U,69146,999,385,.95767831E-3,.188032E-2,0
STARLINK-37661,2026-110Z,2026-06-06T06:00:02.000160,15.62924634,.00016188,97.2848,353.5136,90.0106,240.2302,0,U,69147,999,395,-.3318839E-1,-.2596965E-1,0
STARLINK-37395,2026-111A,2026-06-06T00:00:02.999808,15.80870074,.00011111,53.1583,207.7263,94.0362,167.4818,0,U,69148,999,374,-.11253716E-3,-.22848E-3,0
STARLINK-37346,2026-111B,2026-06-06T00:00:02.999808,15.80914838,.00010523,53.1584,207.7140,91.7880,175.6728,0,U,69149,999,374,-.59497855E-3,-.116779E-2,0
STARLINK-37332,2026-111C,2026-06-06T06:00:02.000160,15.80837862,.00013214,53.1590,206.4451,85.3225,173.4906,0,U,69150,999,378,.28864953E-4,.4992E-4,0
STARLINK-37297,2026-111D,2026-06-06T00:00:02.999808,15.80906430,.00010131,53.1585,207.7112,86.9015,181.7897,0,U,69151,999,374,-.57449402E-3,-.11279E-2,0
STARLINK-37317,2026-111E,2026-06-06T00:00:02.999808,15.80900230,.00010829,53.1585,207.6880,110.1289,169.7390,0,U,69152,999,374,-.40487637E-3,-.79973E-3,0
STARLINK-37374,2026-111F,2026-06-06T00:00:02.999808,15.80912828,.00010064,53.1586,207.6704,109.8238,178.3045,0,U,69153,999,374,-.46116985E-3,-.90932E-3,0
STARLINK-37235,2026-111G,2026-06-06T06:00:02.000160,15.77650811,.00010382,53.1594,206.4331,101.5613,162.9583,0,U,69154,999,378,-.17047317E-1,-.2488021E-1,0
STARLINK-37329,2026-111H,2026-06-06T00:00:02.999808,15.80935328,.00010256,53.1587,207.6932,79.9266,197.3752,0,U,69155,999,374,-.65874584E-3,-.129159E-2,0
STARLINK-37345,2026-111J,2026-06-06T00:00:02.999808,15.80896776,.000118,53.1587,207.6764,76.6924,208.8582,0,U,69156,999,374,-.26250397E-3,-.52253E-3,0
STARLINK-37353,2026-111K,2026-06-06T00:00:02.999808,15.80918928,.00008974,53.1588,207.6735,67.5572,219.2184,0,U,69157,999,374,-.48771068E-3,-.96094E-3,0
STARLINK-37363,2026-111L,2026-06-06T00:00:02.999808,15.80918326,.00012232,53.1588,207.6491,91.2900,207.3030,0,U,69158,999,374,-.47027054E-3,-.9272E-3,0
STARLINK-37343,2026-111M,2026-06-06T00:00:02.999808,15.81379560,.00004122,53.1591,207.6403,105.8764,196.8921,0,U,69159,999,374,-.96673889E-2,-.1692729E-1,0
STARLINK-37328,2026-111N,2026-06-06T00:00:02.999808,15.80934791,.0001111,53.1589,207.6476,105.8444,193.4651,0,U,69160,999,374,-.6305736E-3,-.12374E-2,0
STARLINK-37311,2026-111P,2026-06-06T00:00:02.999808,15.81269593,.00003969,53.1589,207.6346,100.6379,204.8054,0,U,69161,999,374,-.46447953E-2,-.847642E-2,0
STARLINK-36286,2026-111Q,2026-06-06T00:00:02.999808,15.80983289,.00010085,53.1588,207.6257,82.0248,227.7690,0,U,69162,999,374,-.13222028E-2,-.255395E-2,0
STARLINK-37196,2026-111R,2026-06-06T06:00:02.000160,15.78056253,.00011818,53.1593,206.3963,106.2599,175.8020,0,U,69163,999,378,-.39257017E-3,-.68291E-3,0
STARLINK-36288,2026-111S,2026-06-06T06:00:02.000160,15.78078270,.0001267,53.1595,206.3862,98.9145,187.7505,0,U,69164,999,378,-.59344911E-3,-.102589E-2,0
STARLINK-37445,2026-111T,2026-06-06T00:00:02.999808,15.80665220,.00004708,53.1590,207.6020,73.9976,247.2143,0,U,69165,999,374,-.14279994E-1,-.2407337E-1,0
