STARLINK-37531          
1 69136U 26110N   26157.25002315 -.00760225  00000+0 -56521-2 0  9998
2 69136  97.2840 353.5327 0001308  81.3115 292.6859 15.74836747  3901
STARLINK-37662          
1 69137U 26110P   26157.25002315 -.00755247  00000+0 -71271-2 0  9996
2 69137  97.2844 353.5204 0001394  78.0414 267.8840 15.69194222  3903
STARLINK-37658          
1 69138U 26110Q   26157.25002315 -.02562843  00000+0 -33729-1 0  9992
2 69138  97.2851 353.4869 0001946  99.1715 168.7133 15.62118152  3904
STARLINK-37659          
1 69139U 26110R   26157.25002315 -.02527625  00000+0 -35772-1 0  9992
2 69139  97.2854 353.4760 0002038  95.0422 147.4016 15.60189825  3908
STARLINK-37653          
1 69140U 26110S   26157.25002315 -.02581609  00000+0 -38649-1 0  9992
2 69140  97.2854 353.4748 0002042 100.2834 138.5012 15.58807868  3905
STARLINK-37654          
1 69141U 26110T   26157.25002315 -.02567808  00000+0 -24772-1 0  9990
2 69141  97.2842 353.5297 0001559  85.3206 283.4224 15.69819819  3907
STARLINK-37655          
1 69142U 26110U   26157.25002315 -.00752057  00000+0 -63846-2 0  9997
2 69142  97.2842 353.5362 0001246  89.5716 292.3731 15.71718373  3904
STARLINK-37636          
1 69143U 26110V   26156.85952126  .00284063  00000+0  14278-2 0  9997
2 69143  97.2843 353.1400 0001314  94.7216 265.4202 15.80941715  3850
STARLINK-37638          
1 69144U 26110W   26156.85875940  .00194857  00000+0  99107-3 0  9992
2 69144  97.2844 353.1411 0001440  81.2606 278.8825 15.80913074  3854
STARLINK-37657          
1 69145U 26110X   26157.25002315 -.02607492  00000+0 -25812-1 0  9994
2 69145  97.2849 353.5348 0001463  81.8101 297.9226 15.69257686  3959
STARLINK-37639          
1 69146U 26110Y   26156.85726745  .00188032  00000+0  95768-3 0  9999
2 69146  97.2849 353.1434 0001322  81.7527 278.3891 15.80900757  3854
STARLINK-37661          
1 69147U 26110Z   26157.25002315 -.02596965  00000+0 -33188-1 0  9993
2 69147  97.2848 353.5136 0001618  90.0106 240.2302 15.62924634  3957
STARLINK-37395          
1 69148U 26111A   26157.00003472 -.00022848  00000+0 -11254-3 0  9997
2 69148  53.1583 207.7263 0001111  94.0362 167.4818 15.80870074  3749
STARLINK-37346          
1 69149U 26111B   26157.00003472 -.00116779  00000+0 -59498-3 0  9997
2 69149  53.1584 207.7140 0001052  91.7880 175.6728 15.80914838  3746
STARLINK-37332          
1 69150U 26111C   26157.25002315  .00004992  00000+0  28865-4 0  9997
2 69150  53.1590 206.4451 0001321  85.3225 173.4906 15.80837862  3786
STARLINK-37297          
1 69151U 26111D   26157.00003472 -.00112790  00000+0 -57449-3 0  9993
2 69151  53.1585 207.7112 0001013  86.9015 181.7897 15.80906430  3746
STARLINK-37317          
1 69152U 26111E   26157.00003472 -.00079973  00000+0 -40488-3 0  9994
2 69152  53.1585 207.6880 0001082 110.1289 169.7390 15.80900230  3743
STARLINK-37374          
1 69153U 26111F   26157.00003472 -.00090932  00000+0 -46117-3 0  9998
2 69153  53.1586 207.6704 0001006 109.8238 178.3045 15.80912828  3744
STARLINK-37235          
1 69154U 26111G   26157.25002315 -.02488021  00000+0 -17047-1 0  9991
2 69154  53.1594 206.4331 0001038 101.5613 162.9583 15.77650811  3785
STARLINK-37329          
1 69155U 26111H   26157.00003472 -.00129159  00000+0 -65875-3 0  9996
2 69155  53.1587 207.6932 0001025  79.9266 197.3752 15.80935328  3745
STARLINK-37345          
1 69156U 26111J   26157.00003472 -.00052253  00000+0 -26250-3 0  9991
2 69156  53.1587 207.6764 0001180  76.6924 208.8582 15.80896776  3748
STARLINK-37353          
1 69157U 26111K   26157.00003472 -.00096094  00000+0 -48771-3 0  9995
2 69157  53.1588 207.6735 0000897  67.5572 219.2184 15.80918928  3748
STARLINK-37363          
1 69158U 26111L   26157.00003472 -.00092720  00000+0 -47027-3 0  9991
2 69158  53.1588 207.6491 0001223  91.2900 207.3030 15.80918326  3741
STARLINK-37343          
1 69159U 26111M   26157.00003472 -.01692729  00000+0 -96674-2 0  9999
2 69159  53.1591 207.6403 0000412 105.8764 196.8921 15.81379560  3741
STARLINK-37328          
1 69160U 26111N   26157.00003472 -.00123740  00000+0 -63057-3 0  9992
2 69160  53.1589 207.6476 0001111 105.8444 193.4651 15.80934791  3747
STARLINK-37311          
1 69161U 26111P   26157.00003472 -.00847642  00000+0 -46448-2 0  9991
2 69161  53.1589 207.6346 0000396 100.6379 204.8054 15.81269593  3744
STARLINK-36286          
1 69162U 26111Q   26157.00003472 -.00255395  00000+0 -13222-2 0  9994
2 69162  53.1588 207.6257 0001008  82.0248 227.7690 15.80983289  3748
STARLINK-37196          
1 69163U 26111R   26157.25002315 -.00068291  00000+0 -39257-3 0  9991
2 69163  53.1593 206.3963 0001181 106.2599 175.8020 15.78056253  3788
STARLINK-36288          
1 69164U 26111S   26157.25002315 -.00102589  00000+0 -59345-3 0  9991
2 69164  53.1595 206.3862 0001267  98.9145 187.7505 15.78078270  3781
STARLINK-37445          
1 69165U 26111T   26157.00003472 -.02407337  00000+0 -14280-1 0  9998
2 69165  53.1590 207.6020 0000470  73.9976 247.2143 15.80665220  3743
